{
  "type": "FeatureCollection",
  "features": [
    {
      "type": "Feature",
      "properties": {
        "zone_id": "tiruppur_north",
        "name": "TIRUPPUR NORTH",
        "assessment_year": 2024,
        "district": "Tiruppur",
        "state": "Tamil Nadu",
        "source": "CGWB — Dynamic Ground Water Resources of Tamil Nadu 2024"
      },
      "geometry": {
        "type": "Polygon",
        "coordinates": [
          [
            [
              77.3,
              11.11
            ],
            [
              77.36,
              11.11
            ],
            [
              77.36,
              11.16
            ],
            [
              77.3,
              11.16
            ],
            [
              77.3,
              11.11
            ]
          ]
        ]
      }
    },
    {
      "type": "Feature",
      "properties": {
        "zone_id": "tiruppur_south",
        "name": "TIRUPPUR SOUTH",
        "assessment_year": 2024,
        "district": "Tiruppur",
        "state": "Tamil Nadu",
        "source": "CGWB — Dynamic Ground Water Resources of Tamil Nadu 2024"
      },
      "geometry": {
        "type": "Polygon",
        "coordinates": [
          [
            [
              77.31,
              11.06
            ],
            [
              77.37,
              11.06
            ],
            [
              77.37,
              11.11
            ],
            [
              77.31,
              11.11
            ],
            [
              77.31,
              11.06
            ]
          ]
        ]
      }
    },
    {
      "type": "Feature",
      "properties": {
        "zone_id": "tiruppur_velampalayam",
        "name": "VELAMPALAYAM",
        "assessment_year": 2024,
        "district": "Tiruppur",
        "state": "Tamil Nadu",
        "source": "CGWB — Dynamic Ground Water Resources of Tamil Nadu 2024"
      },
      "geometry": {
        "type": "Polygon",
        "coordinates": [
          [
            [
              77.29,
              11.13
            ],
            [
              77.33,
              11.13
            ],
            [
              77.33,
              11.17
            ],
            [
              77.29,
              11.17
            ],
            [
              77.29,
              11.13
            ]
          ]
        ]
      }
    },
    {
      "type": "Feature",
      "properties": {
        "zone_id": "tiruppur_nallur_t",
        "name": "NALLUR(T)",
        "assessment_year": 2024,
        "district": "Tiruppur",
        "state": "Tamil Nadu",
        "source": "CGWB — Dynamic Ground Water Resources of Tamil Nadu 2024"
      },
      "geometry": {
        "type": "Polygon",
        "coordinates": [
          [
            [
              77.35,
              11.07
            ],
            [
              77.4,
              11.07
            ],
            [
              77.4,
              11.12
            ],
            [
              77.35,
              11.12
            ],
            [
              77.35,
              11.07
            ]
          ]
        ]
      }
    },
    {
      "type": "Feature",
      "properties": {
        "zone_id": "tiruppur_perumanallur",
        "name": "PERUMANALLUR",
        "assessment_year": 2024,
        "district": "Tiruppur",
        "state": "Tamil Nadu",
        "source": "CGWB — Dynamic Ground Water Resources of Tamil Nadu 2024"
      },
      "geometry": {
        "type": "Polygon",
        "coordinates": [
          [
            [
              77.32,
              11.16
            ],
            [
              77.38,
              11.16
            ],
            [
              77.38,
              11.21
            ],
            [
              77.32,
              11.21
            ],
            [
              77.32,
              11.16
            ]
          ]
        ]
      }
    },
    {
      "type": "Feature",
      "properties": {
        "zone_id": "tiruppur_avanashi_east",
        "name": "AVANASHI EAST",
        "assessment_year": 2024,
        "district": "Tiruppur",
        "state": "Tamil Nadu",
        "source": "CGWB — Dynamic Ground Water Resources of Tamil Nadu 2024"
      },
      "geometry": {
        "type": "Polygon",
        "coordinates": [
          [
            [
              77.26,
              11.18
            ],
            [
              77.32,
              11.18
            ],
            [
              77.32,
              11.24
            ],
            [
              77.26,
              11.24
            ],
            [
              77.26,
              11.18
            ]
          ]
        ]
      }
    },
    {
      "type": "Feature",
      "properties": {
        "zone_id": "tiruppur_avinashi_west",
        "name": "AVINASHI WEST",
        "assessment_year": 2024,
        "district": "Tiruppur",
        "state": "Tamil Nadu",
        "source": "CGWB — Dynamic Ground Water Resources of Tamil Nadu 2024"
      },
      "geometry": {
        "type": "Polygon",
        "coordinates": [
          [
            [
              77.2,
              11.18
            ],
            [
              77.26,
              11.18
            ],
            [
              77.26,
              11.24
            ],
            [
              77.2,
              11.24
            ],
            [
              77.2,
              11.18
            ]
          ]
        ]
      }
    },
    {
      "type": "Feature",
      "properties": {
        "zone_id": "tiruppur_sevur",
        "name": "SEVUR",
        "assessment_year": 2024,
        "district": "Tiruppur",
        "state": "Tamil Nadu",
        "source": "CGWB — Dynamic Ground Water Resources of Tamil Nadu 2024"
      },
      "geometry": {
        "type": "Polygon",
        "coordinates": [
          [
            [
              77.23,
              11.24
            ],
            [
              77.3,
              11.24
            ],
            [
              77.3,
              11.3
            ],
            [
              77.23,
              11.3
            ],
            [
              77.23,
              11.24
            ]
          ]
        ]
      }
    },
    {
      "type": "Feature",
      "properties": {
        "zone_id": "tiruppur_uthukkuli",
        "name": "UTHUKKULI",
        "assessment_year": 2024,
        "district": "Tiruppur",
        "state": "Tamil Nadu",
        "source": "CGWB — Dynamic Ground Water Resources of Tamil Nadu 2024"
      },
      "geometry": {
        "type": "Polygon",
        "coordinates": [
          [
            [
              77.38,
              11.14
            ],
            [
              77.46,
              11.14
            ],
            [
              77.46,
              11.21
            ],
            [
              77.38,
              11.21
            ],
            [
              77.38,
              11.14
            ]
          ]
        ]
      }
    },
    {
      "type": "Feature",
      "properties": {
        "zone_id": "tiruppur_kunnuthur",
        "name": "KUNNUTHUR",
        "assessment_year": 2024,
        "district": "Tiruppur",
        "state": "Tamil Nadu",
        "source": "CGWB — Dynamic Ground Water Resources of Tamil Nadu 2024"
      },
      "geometry": {
        "type": "Polygon",
        "coordinates": [
          [
            [
              77.34,
              11.21
            ],
            [
              77.42,
              11.21
            ],
            [
              77.42,
              11.28
            ],
            [
              77.34,
              11.28
            ],
            [
              77.34,
              11.21
            ]
          ]
        ]
      }
    },
    {
      "type": "Feature",
      "properties": {
        "zone_id": "tiruppur_palladam",
        "name": "PALLADAM",
        "assessment_year": 2024,
        "district": "Tiruppur",
        "state": "Tamil Nadu",
        "source": "CGWB — Dynamic Ground Water Resources of Tamil Nadu 2024"
      },
      "geometry": {
        "type": "Polygon",
        "coordinates": [
          [
            [
              77.24,
              10.98
            ],
            [
              77.32,
              10.98
            ],
            [
              77.32,
              11.06
            ],
            [
              77.24,
              11.06
            ],
            [
              77.24,
              10.98
            ]
          ]
        ]
      }
    },
    {
      "type": "Feature",
      "properties": {
        "zone_id": "tiruppur_samalapuram",
        "name": "SAMALAPURAM",
        "assessment_year": 2024,
        "district": "Tiruppur",
        "state": "Tamil Nadu",
        "source": "CGWB — Dynamic Ground Water Resources of Tamil Nadu 2024"
      },
      "geometry": {
        "type": "Polygon",
        "coordinates": [
          [
            [
              77.21,
              11.04
            ],
            [
              77.28,
              11.04
            ],
            [
              77.28,
              11.11
            ],
            [
              77.21,
              11.11
            ],
            [
              77.21,
              11.04
            ]
          ]
        ]
      }
    },
    {
      "type": "Feature",
      "properties": {
        "zone_id": "tiruppur_karadivavi",
        "name": "KARADIVAVI",
        "assessment_year": 2024,
        "district": "Tiruppur",
        "state": "Tamil Nadu",
        "source": "CGWB — Dynamic Ground Water Resources of Tamil Nadu 2024"
      },
      "geometry": {
        "type": "Polygon",
        "coordinates": [
          [
            [
              77.16,
              10.95
            ],
            [
              77.24,
              10.95
            ],
            [
              77.24,
              11.03
            ],
            [
              77.16,
              11.03
            ],
            [
              77.16,
              10.95
            ]
          ]
        ]
      }
    },
    {
      "type": "Feature",
      "properties": {
        "zone_id": "tiruppur_pongalore",
        "name": "PONGALORE",
        "assessment_year": 2024,
        "district": "Tiruppur",
        "state": "Tamil Nadu",
        "source": "CGWB — Dynamic Ground Water Resources of Tamil Nadu 2024"
      },
      "geometry": {
        "type": "Polygon",
        "coordinates": [
          [
            [
              77.32,
              10.97
            ],
            [
              77.4,
              10.97
            ],
            [
              77.4,
              11.05
            ],
            [
              77.32,
              11.05
            ],
            [
              77.32,
              10.97
            ]
          ]
        ]
      }
    },
    {
      "type": "Feature",
      "properties": {
        "zone_id": "tiruppur_south_avanashipalayam",
        "name": "SOUTH AVANASHIPALAYAM",
        "assessment_year": 2024,
        "district": "Tiruppur",
        "state": "Tamil Nadu",
        "source": "CGWB — Dynamic Ground Water Resources of Tamil Nadu 2024"
      },
      "geometry": {
        "type": "Polygon",
        "coordinates": [
          [
            [
              77.37,
              10.94
            ],
            [
              77.45,
              10.94
            ],
            [
              77.45,
              11.02
            ],
            [
              77.37,
              11.02
            ],
            [
              77.37,
              10.94
            ]
          ]
        ]
      }
    },
    {
      "type": "Feature",
      "properties": {
        "zone_id": "tiruppur_kangeyam",
        "name": "KANGEYAM",
        "assessment_year": 2024,
        "district": "Tiruppur",
        "state": "Tamil Nadu",
        "source": "CGWB — Dynamic Ground Water Resources of Tamil Nadu 2024"
      },
      "geometry": {
        "type": "Polygon",
        "coordinates": [
          [
            [
              77.5,
              10.98
            ],
            [
              77.6,
              10.98
            ],
            [
              77.6,
              11.07
            ],
            [
              77.5,
              11.07
            ],
            [
              77.5,
              10.98
            ]
          ]
        ]
      }
    },
    {
      "type": "Feature",
      "properties": {
        "zone_id": "tiruppur_nathakadayur",
        "name": "NATHAKADAYUR",
        "assessment_year": 2024,
        "district": "Tiruppur",
        "state": "Tamil Nadu",
        "source": "CGWB — Dynamic Ground Water Resources of Tamil Nadu 2024"
      },
      "geometry": {
        "type": "Polygon",
        "coordinates": [
          [
            [
              77.55,
              11.07
            ],
            [
              77.65,
              11.07
            ],
            [
              77.65,
              11.16
            ],
            [
              77.55,
              11.16
            ],
            [
              77.55,
              11.07
            ]
          ]
        ]
      }
    },
    {
      "type": "Feature",
      "properties": {
        "zone_id": "tiruppur_uhiyur",
        "name": "UHIYUR",
        "assessment_year": 2024,
        "district": "Tiruppur",
        "state": "Tamil Nadu",
        "source": "CGWB — Dynamic Ground Water Resources of Tamil Nadu 2024"
      },
      "geometry": {
        "type": "Polygon",
        "coordinates": [
          [
            [
              77.43,
              10.99
            ],
            [
              77.51,
              10.99
            ],
            [
              77.51,
              11.07
            ],
            [
              77.43,
              11.07
            ],
            [
              77.43,
              10.99
            ]
          ]
        ]
      }
    },
    {
      "type": "Feature",
      "properties": {
        "zone_id": "tiruppur_vellakoil",
        "name": "VELLAKOIL",
        "assessment_year": 2024,
        "district": "Tiruppur",
        "state": "Tamil Nadu",
        "source": "CGWB — Dynamic Ground Water Resources of Tamil Nadu 2024"
      },
      "geometry": {
        "type": "Polygon",
        "coordinates": [
          [
            [
              77.6,
              10.92
            ],
            [
              77.72,
              10.92
            ],
            [
              77.72,
              11.02
            ],
            [
              77.6,
              11.02
            ],
            [
              77.6,
              10.92
            ]
          ]
        ]
      }
    },
    {
      "type": "Feature",
      "properties": {
        "zone_id": "tiruppur_sangarandampalayam",
        "name": "SANGARANDAMPALAYAM",
        "assessment_year": 2024,
        "district": "Tiruppur",
        "state": "Tamil Nadu",
        "source": "CGWB — Dynamic Ground Water Resources of Tamil Nadu 2024"
      },
      "geometry": {
        "type": "Polygon",
        "coordinates": [
          [
            [
              77.62,
              10.85
            ],
            [
              77.72,
              10.85
            ],
            [
              77.72,
              10.93
            ],
            [
              77.62,
              10.93
            ],
            [
              77.62,
              10.85
            ]
          ]
        ]
      }
    },
    {
      "type": "Feature",
      "properties": {
        "zone_id": "tiruppur_dharapuram",
        "name": "DHARAPURAM",
        "assessment_year": 2024,
        "district": "Tiruppur",
        "state": "Tamil Nadu",
        "source": "CGWB — Dynamic Ground Water Resources of Tamil Nadu 2024"
      },
      "geometry": {
        "type": "Polygon",
        "coordinates": [
          [
            [
              77.48,
              10.68
            ],
            [
              77.58,
              10.68
            ],
            [
              77.58,
              10.77
            ],
            [
              77.48,
              10.77
            ],
            [
              77.48,
              10.68
            ]
          ]
        ]
      }
    },
    {
      "type": "Feature",
      "properties": {
        "zone_id": "tiruppur_alangiyam_dup",
        "name": "ALANGIYAM-DUP",
        "assessment_year": 2024,
        "district": "Tiruppur",
        "state": "Tamil Nadu",
        "source": "CGWB — Dynamic Ground Water Resources of Tamil Nadu 2024"
      },
      "geometry": {
        "type": "Polygon",
        "coordinates": [
          [
            [
              77.45,
              10.6
            ],
            [
              77.54,
              10.6
            ],
            [
              77.54,
              10.69
            ],
            [
              77.45,
              10.69
            ],
            [
              77.45,
              10.6
            ]
          ]
        ]
      }
    },
    {
      "type": "Feature",
      "properties": {
        "zone_id": "tiruppur_kannivadi",
        "name": "KANNIVADI",
        "assessment_year": 2024,
        "district": "Tiruppur",
        "state": "Tamil Nadu",
        "source": "CGWB — Dynamic Ground Water Resources of Tamil Nadu 2024"
      },
      "geometry": {
        "type": "Polygon",
        "coordinates": [
          [
            [
              77.38,
              10.65
            ],
            [
              77.47,
              10.65
            ],
            [
              77.47,
              10.74
            ],
            [
              77.38,
              10.74
            ],
            [
              77.38,
              10.65
            ]
          ]
        ]
      }
    },
    {
      "type": "Feature",
      "properties": {
        "zone_id": "tiruppur_kundadam",
        "name": "KUNDADAM",
        "assessment_year": 2024,
        "district": "Tiruppur",
        "state": "Tamil Nadu",
        "source": "CGWB — Dynamic Ground Water Resources of Tamil Nadu 2024"
      },
      "geometry": {
        "type": "Polygon",
        "coordinates": [
          [
            [
              77.43,
              10.77
            ],
            [
              77.53,
              10.77
            ],
            [
              77.53,
              10.86
            ],
            [
              77.43,
              10.86
            ],
            [
              77.43,
              10.77
            ]
          ]
        ]
      }
    },
    {
      "type": "Feature",
      "properties": {
        "zone_id": "tiruppur_moolanur",
        "name": "MOOLANUR",
        "assessment_year": 2024,
        "district": "Tiruppur",
        "state": "Tamil Nadu",
        "source": "CGWB — Dynamic Ground Water Resources of Tamil Nadu 2024"
      },
      "geometry": {
        "type": "Polygon",
        "coordinates": [
          [
            [
              77.6,
              10.7
            ],
            [
              77.72,
              10.7
            ],
            [
              77.72,
              10.8
            ],
            [
              77.6,
              10.8
            ],
            [
              77.6,
              10.7
            ]
          ]
        ]
      }
    },
    {
      "type": "Feature",
      "properties": {
        "zone_id": "tiruppur_ponnapuram",
        "name": "PONNAPURAM",
        "assessment_year": 2024,
        "district": "Tiruppur",
        "state": "Tamil Nadu",
        "source": "CGWB — Dynamic Ground Water Resources of Tamil Nadu 2024"
      },
      "geometry": {
        "type": "Polygon",
        "coordinates": [
          [
            [
              77.54,
              10.77
            ],
            [
              77.64,
              10.77
            ],
            [
              77.64,
              10.86
            ],
            [
              77.54,
              10.86
            ],
            [
              77.54,
              10.77
            ]
          ]
        ]
      }
    },
    {
      "type": "Feature",
      "properties": {
        "zone_id": "tiruppur_udumalaipettai",
        "name": "UDUMALAIPETTAI",
        "assessment_year": 2024,
        "district": "Tiruppur",
        "state": "Tamil Nadu",
        "source": "CGWB — Dynamic Ground Water Resources of Tamil Nadu 2024"
      },
      "geometry": {
        "type": "Polygon",
        "coordinates": [
          [
            [
              77.2,
              10.53
            ],
            [
              77.3,
              10.53
            ],
            [
              77.3,
              10.62
            ],
            [
              77.2,
              10.62
            ],
            [
              77.2,
              10.53
            ]
          ]
        ]
      }
    },
    {
      "type": "Feature",
      "properties": {
        "zone_id": "tiruppur_gudimangalam",
        "name": "GUDIMANGALAM",
        "assessment_year": 2024,
        "district": "Tiruppur",
        "state": "Tamil Nadu",
        "source": "CGWB — Dynamic Ground Water Resources of Tamil Nadu 2024"
      },
      "geometry": {
        "type": "Polygon",
        "coordinates": [
          [
            [
              77.28,
              10.63
            ],
            [
              77.38,
              10.63
            ],
            [
              77.38,
              10.72
            ],
            [
              77.28,
              10.72
            ],
            [
              77.28,
              10.63
            ]
          ]
        ]
      }
    },
    {
      "type": "Feature",
      "properties": {
        "zone_id": "tiruppur_kurichikottai",
        "name": "KURICHIKOTTAI",
        "assessment_year": 2024,
        "district": "Tiruppur",
        "state": "Tamil Nadu",
        "source": "CGWB — Dynamic Ground Water Resources of Tamil Nadu 2024"
      },
      "geometry": {
        "type": "Polygon",
        "coordinates": [
          [
            [
              77.12,
              10.5
            ],
            [
              77.22,
              10.5
            ],
            [
              77.22,
              10.59
            ],
            [
              77.12,
              10.59
            ],
            [
              77.12,
              10.5
            ]
          ]
        ]
      }
    },
    {
      "type": "Feature",
      "properties": {
        "zone_id": "tiruppur_madathukulam",
        "name": "MADATHUKULAM",
        "assessment_year": 2024,
        "district": "Tiruppur",
        "state": "Tamil Nadu",
        "source": "CGWB — Dynamic Ground Water Resources of Tamil Nadu 2024"
      },
      "geometry": {
        "type": "Polygon",
        "coordinates": [
          [
            [
              77.3,
              10.52
            ],
            [
              77.4,
              10.52
            ],
            [
              77.4,
              10.61
            ],
            [
              77.3,
              10.61
            ],
            [
              77.3,
              10.52
            ]
          ]
        ]
      }
    },
    {
      "type": "Feature",
      "properties": {
        "zone_id": "tiruppur_peddappampatti",
        "name": "PEDDAPPAMPATTI",
        "assessment_year": 2024,
        "district": "Tiruppur",
        "state": "Tamil Nadu",
        "source": "CGWB — Dynamic Ground Water Resources of Tamil Nadu 2024"
      },
      "geometry": {
        "type": "Polygon",
        "coordinates": [
          [
            [
              77.22,
              10.62
            ],
            [
              77.3,
              10.62
            ],
            [
              77.3,
              10.7
            ],
            [
              77.22,
              10.7
            ],
            [
              77.22,
              10.62
            ]
          ]
        ]
      }
    },
    {
      "type": "Feature",
      "properties": {
        "zone_id": "tiruppur_periavalavadi",
        "name": "PERIAVALAVADI",
        "assessment_year": 2024,
        "district": "Tiruppur",
        "state": "Tamil Nadu",
        "source": "CGWB — Dynamic Ground Water Resources of Tamil Nadu 2024"
      },
      "geometry": {
        "type": "Polygon",
        "coordinates": [
          [
            [
              77.34,
              10.45
            ],
            [
              77.44,
              10.45
            ],
            [
              77.44,
              10.53
            ],
            [
              77.34,
              10.53
            ],
            [
              77.34,
              10.45
            ]
          ]
        ]
      }
    },
    {
      "type": "Feature",
      "properties": {
        "zone_id": "tiruppur_thungavi",
        "name": "THUNGAVI",
        "assessment_year": 2024,
        "district": "Tiruppur",
        "state": "Tamil Nadu",
        "source": "CGWB — Dynamic Ground Water Resources of Tamil Nadu 2024"
      },
      "geometry": {
        "type": "Polygon",
        "coordinates": [
          [
            [
              77.4,
              10.53
            ],
            [
              77.48,
              10.53
            ],
            [
              77.48,
              10.61
            ],
            [
              77.4,
              10.61
            ],
            [
              77.4,
              10.53
            ]
          ]
        ]
      }
    }
  ]
}